{
  "norad_id": 59043,
  "name": "STARLINK-31234",
  "history": [
    {
      "epoch": "2026-03-28T19:57:31.507488Z",
      "apogee_km": 483.6703518170025,
      "perigee_km": 482.4398656242247,
      "latitude_deg": 2.2661393845204715e-05,
      "longitude_deg": 150.01313024343816,
      "height_km": 482.9070265702117,
      "semi_major_axis_km": 6861.192108720614,
      "eccentricity": 8.967e-05,
      "inclination_deg": 43.0025,
      "raan_deg": 275.6408,
      "arg_perigee_deg": 262.9614,
      "mean_anomaly_deg": 97.1136,
      "mean_motion_rev_day": 15.27577992
    }
  ]
}